NORAD_CAT_ID,OBJECT_NAME,OBJECT_TYPE,EPOCH,MEAN_MOTION,ECCENTRICITY,INCLINATION,RA_OF_ASC_NODE,ARG_OF_PERICENTER,MEAN_ANOMALY,BSTAR,MEAN_MOTION_DOT,MEAN_MOTION_DDOT,TLE_LINE0,TLE_LINE1,TLE_LINE2,SEMIMAJOR_AXIS,PERIOD,APOGEE,PERIGEE,DECAYED
52864.0,STARLINK-4267,PAYLOAD,2024-02-21 14:44:55,15.08859495,0.0001281,53.2146,137.8733,92.4525,267.6613,0.00065838,0.00010211,0.0,0 STARLINK-4267,1 52864U 22062AL  24052.61453403  .00010211  00000-0  65838-3 0  9994,2 52864  53.2146 137.8733 0001281  92.4525 267.6613 15.08859495 93141,6917.821,95.436,540.572,538.8,0.0
52864.0,STARLINK-4267,PAYLOAD,2024-02-22 11:24:56,15.08838376,0.0001342,53.215,134.0092,91.5704,268.5442,0.00015821,2.231e-05,0.0,0 STARLINK-4267,1 52864U 22062AL  24053.47565937  .00002231  00000-0  15821-3 0  9995,2 52864  53.2150 134.0092 0001342  91.5704 268.5442 15.08838376 93763,6917.885,95.438,540.679,538.822,0.0
52864.0,STARLINK-4267,PAYLOAD,2024-02-22 13:00:20,15.08845317,0.000146,53.2153,133.7125,91.548,268.5679,0.00028959,4.325e-05,0.0,0 STARLINK-4267,1 52864U 22062AL  24053.54189896  .00004325  00000-0  28959-3 0  9991,2 52864  53.2153 133.7125 0001460  91.5480 268.5679 15.08845317 93283,6917.864,95.437,540.739,538.719,0.0
52864.0,STARLINK-4267,PAYLOAD,2024-02-23 11:15:44,15.08839313,0.0001651,53.2173,129.5473,80.5551,279.5627,0.00015436,2.169e-05,0.0,0 STARLINK-4267,1 52864U 22062AL  24054.46926173  .00002169  00000-0  15436-3 0  9990,2 52864  53.2173 129.5473 0001651  80.5551 279.5627 15.08839313 93423,6917.882,95.438,540.89,538.605,0.0
52864.0,STARLINK-4267,PAYLOAD,2024-02-23 22:23:26,15.08834776,0.0001628,53.2167,127.4658,80.0661,280.0515,0.00014126,1.961e-05,0.0,0 STARLINK-4267,1 52864U 22062AL  24054.93294709  .00001961  00000-0  14126-3 0  9999,2 52864  53.2167 127.4658 0001628  80.0661 280.0515 15.08834776 93497,6917.896,95.438,540.888,538.635,0.0
52864.0,STARLINK-4267,PAYLOAD,2024-02-24 04:44:59,15.08840203,0.0001534,53.2169,126.2766,82.8223,277.2943,-4.277e-05,-9.69e-06,0.0,0 STARLINK-4267,1 52864U 22062AL  24055.19790630 -.00000969  00000-0 -42770-4 0  9998,2 52864  53.2169 126.2766 0001534  82.8223 277.2943 15.08840203 94021,6917.88,95.438,540.806,538.684,0.0
52864.0,STARLINK-4267,PAYLOAD,2024-02-24 11:06:31,15.08843428,0.0001488,53.2165,125.0863,89.747,270.3693,0.00011598,1.558e-05,0.0,0 STARLINK-4267,1 52864U 22062AL  24055.46286541  .00001558  00000-0  11598-3 0  9995,2 52864  53.2165 125.0863 0001488  89.7470 270.3693 15.08843428 93577,6917.87,95.437,540.764,538.706,0.0
52864.0,STARLINK-4267,PAYLOAD,2024-02-25 10:57:18,15.08845355,0.000148,53.216,120.6254,92.1428,267.9734,0.00023819,3.505e-05,0.0,0 STARLINK-4267,1 52864U 22062AL  24056.45646589  .00003505  00000-0  23819-3 0  9990,2 52864  53.2160 120.6254 0001480  92.1428 267.9734 15.08845355 94211,6917.864,95.437,540.753,538.705,0.0
52864.0,STARLINK-4267,PAYLOAD,2024-02-25 14:08:04,15.08848979,0.0001478,53.2158,120.0304,91.9026,268.2136,0.00029778,4.456e-05,0.0,0 STARLINK-4267,1 52864U 22062AL  24056.58894415  .00004456  00000-0  29778-3 0  9993,2 52864  53.2158 120.0304 0001478  91.9026 268.2136 15.08848979 93748,6917.853,95.437,540.74,538.695,0.0
52864.0,STARLINK-4267,PAYLOAD,2024-02-26 10:48:05,15.08852992,0.0001587,53.2159,116.1629,91.8167,268.3007,0.00019988,2.896e-05,0.0,0 STARLINK-4267,1 52864U 22062AL  24057.45005910  .00002896  00000-0  19988-3 0  9992,2 52864  53.2159 116.1629 0001587  91.8167 268.3007 15.08852992 93873,6917.841,95.437,540.804,538.608,0.0
52864.0,STARLINK-4267,PAYLOAD,2024-02-27 04:17:19,15.08840748,0.0001917,53.2171,112.8935,105.6487,254.4717,-3.0599e-06,-3.37e-06,0.0,0 STARLINK-4267,1 52864U 22062AL  24058.17870340 -.00000337  00000-0 -30599-5 0  9992,2 52864  53.2171 112.8935 0001917 105.6487 254.4717 15.08840748 94473,6917.878,95.438,541.069,538.417,0.0
52864.0,STARLINK-4267,PAYLOAD,2024-02-27 12:14:16,15.08836536,0.0001527,53.2172,111.4076,98.6789,261.4376,3.5513e-06,-2.31e-06,0.0,0 STARLINK-4267,1 52864U 22062AL  24058.50990912 -.00000231  00000-0  35513-5 0  9990,2 52864  53.2172 111.4076 0001527  98.6789 261.4376 15.08836536 94039,6917.891,95.438,540.812,538.7,0.0
52864.0,STARLINK-4267,PAYLOAD,2024-02-27 20:11:12,15.08833992,0.0001409,53.2169,109.9193,88.6338,271.4815,-4.0045e-05,-9.25e-06,0.0,0 STARLINK-4267,1 52864U 22062AL  24058.84111266 -.00000925  00000-0 -40045-4 0  9990,2 52864  53.2169 109.9193 0001409  88.6338 271.4815 15.08833992 94082,6917.899,95.438,540.738,538.789,0.0
52864.0,STARLINK-4267,PAYLOAD,2024-02-28 13:40:26,15.0884491,0.0001489,53.217,106.6491,92.7934,267.3228,-5.6764e-05,-1.191e-05,0.0,0 STARLINK-4267,1 52864U 22062AL  24059.56974834 -.00001191  00000-0 -56764-4 0  9999,2 52864  53.2170 106.6491 0001489  92.7934 267.3228 15.08844910 94191,6917.865,95.437,540.76,538.7,0.0
52864.0,STARLINK-4267,PAYLOAD,2024-02-28 20:01:58,15.08846421,0.0001417,53.2168,105.4596,94.3484,265.767,-6.5217e-05,-1.326e-05,0.0,0 STARLINK-4267,1 52864U 22062AL  24059.83470691 -.00001326  00000-0 -65217-4 0  9994,2 52864  53.2168 105.4596 0001417  94.3484 265.7670 15.08846421 94721,6917.861,95.437,540.706,538.746,0.0
52864.0,STARLINK-4267,PAYLOAD,2024-02-29 11:55:49,15.08846054,0.0001447,53.2169,102.4859,91.6714,268.4444,0.00018582,2.671e-05,0.0,0 STARLINK-4267,1 52864U 22062AL  24060.49710283  .00002671  00000-0  18582-3 0  9996,2 52864  53.2169 102.4859 0001447  91.6714 268.4444 15.08846054 94338,6917.862,95.437,540.728,538.726,0.0
52864.0,STARLINK-4267,PAYLOAD,2024-02-29 19:52:45,15.08840232,0.000151,53.217,100.9986,80.8135,279.3028,9.1135e-05,1.163e-05,0.0,0 STARLINK-4267,1 52864U 22062AL  24060.82830958  .00001163  00000-0  91135-4 0  9996,2 52864  53.2170 100.9986 0001510  80.8135 279.3028 15.08840232 94872,6917.88,95.438,540.789,538.7,0.0
52864.0,STARLINK-4267,PAYLOAD,2024-03-01 08:35:51,15.08834631,0.0001456,53.2163,98.6201,87.7804,272.3354,9.8951e-05,1.287e-05,0.0,0 STARLINK-4267,1 52864U 22062AL  24061.35823616  .00001287  00000-0  98951-4 0  9998,2 52864  53.2163  98.6201 0001456  87.7804 272.3354 15.08834631 94461,6917.897,95.438,540.769,538.755,0.0
52864.0,STARLINK-4267,PAYLOAD,2024-03-02 08:26:37,15.08854007,0.0001461,53.2159,94.1601,87.7715,272.3444,7.5329e-05,9.12e-06,0.0,0 STARLINK-4267,1 52864U 22062AL  24062.35182317  .00000912  00000-0  75329-4 0  9993,2 52864  53.2159  94.1601 0001461  87.7715 272.3444 15.08854007 95109,6917.838,95.437,540.713,538.692,0.0
52864.0,STARLINK-4267,PAYLOAD,2024-03-03 05:06:38,15.08839117,0.0001589,53.2153,90.2936,83.4275,276.6898,0.00010932,1.452e-05,0.0,0 STARLINK-4267,1 52864U 22062AL  24063.21295107  .00001452  00000-0  10932-3 0  9999,2 52864  53.2153  90.2936 0001589  83.4275 276.6898 15.08839117 95235,6917.883,95.438,540.847,538.649,0.0
52864.0,STARLINK-4267,PAYLOAD,2024-03-03 08:17:25,15.08836885,0.000144,53.2159,89.6977,94.5978,265.5178,0.00014984,2.097e-05,0.0,0 STARLINK-4267,1 52864U 22062AL  24063.34543063  .00002097  00000-0  14984-3 0  9997,2 52864  53.2159  89.6977 0001440  94.5978 265.5178 15.08836885 94761,6917.89,95.438,540.751,538.759,0.0
52864.0,STARLINK-4267,PAYLOAD,2024-03-04 06:32:48,15.08850248,0.0001623,53.2168,85.5365,96.7349,263.3828,7.4326e-06,-1.7e-06,0.0,0 STARLINK-4267,1 52864U 22062AL  24064.27278503 -.00000170  00000-0  74326-5 0  9993,2 52864  53.2168  85.5365 0001623  96.7349 263.3828 15.08850248 95393,6917.849,95.437,540.837,538.591,0.0
52864.0,STARLINK-4267,PAYLOAD,2024-03-05 07:59:00,15.08824321,0.000159,53.2177,80.7833,86.8309,273.2865,5.4492e-06,-2.01e-06,0.0,0 STARLINK-4267,1 52864U 22062AL  24065.33264490 -.00000201  00000-0  54492-5 0  9998,2 52864  53.2177  80.7833 0001590  86.8309 273.2865 15.08824321 95067,6917.928,95.439,540.893,538.693,0.0
52864.0,STARLINK-4267,PAYLOAD,2024-03-05 17:31:19,15.08831664,0.0001492,53.2162,78.9916,91.1121,269.0042,2.235e-05,6.8e-07,0.0,0 STARLINK-4267,1 52864U 22062AL  24065.73008165  .00000068  00000-0  22350-4 0  9994,2 52864  53.2162  78.9916 0001492  91.1121 269.0042 15.08831664 95613,6917.906,95.438,540.803,538.739,0.0
52864.0,STARLINK-4267,PAYLOAD,2024-03-06 07:49:46,15.08846603,0.0001554,53.2165,76.3163,91.1662,268.9508,0.00012333,1.676e-05,0.0,0 STARLINK-4267,1 52864U 22062AL  24066.32623227  .00001676  00000-0  12333-3 0  9997,2 52864  53.2165  76.3163 0001554  91.1662 268.9508 15.08846603 95705,6917.86,95.437,540.8,538.65,0.0
52864.0,STARLINK-4267,PAYLOAD,2024-03-07 10:51:20,15.08840402,0.0001658,53.2174,71.2612,86.7361,273.3821,0.00020686,3.006e-05,0.0,0 STARLINK-4267,1 52864U 22062AL  24067.45231727  .00003006  00000-0  20686-3 0  9991,2 52864  53.2174  71.2612 0001658  86.7361 273.3821 15.08840402 95382,6917.879,95.438,540.891,538.597,0.0
52864.0,STARLINK-4267,PAYLOAD,2024-03-08 09:06:44,15.08836376,0.0001524,53.2175,67.0976,87.0975,273.0191,-5.4076e-05,-1.148e-05,0.0,0 STARLINK-4267,1 52864U 22062AL  24068.37968368 -.00001148  00000-0 -54076-4 0  9999,2 52864  53.2175  67.0976 0001524  87.0975 273.0191 15.08836376 96019,6917.891,95.438,540.811,538.702,0.0
52864.0,STARLINK-4267,PAYLOAD,2024-03-08 17:03:40,15.08838549,0.000152,53.2182,65.6089,87.2547,272.862,1.5149e-05,-4.7e-07,0.0,0 STARLINK-4267,1 52864U 22062AL  24068.71088078 -.00000047  00000-0  15149-4 0  9992,2 52864  53.2182  65.6089 0001520  87.2547 272.8620 15.08838549 95577,6917.885,95.438,540.801,538.698,0.0
52864.0,STARLINK-4267,PAYLOAD,2024-03-09 05:46:44,15.08851509,0.0001475,53.218,63.2306,88.1358,271.9803,0.00010891,1.446e-05,0.0,0 STARLINK-4267,1 52864U 22062AL  24069.24078984  .00001446  00000-0  10891-3 0  9997,2 52864  53.2180  63.2306 0001475  88.1358 271.9803 15.08851509 96148,6917.845,95.437,540.731,538.69,0.0
52864.0,STARLINK-4267,PAYLOAD,2024-03-09 08:57:30,15.08856553,0.0001509,53.2176,62.6356,87.9485,272.168,0.00016004,2.261e-05,0.0,0 STARLINK-4267,1 52864U 22062AL  24069.37326566  .00002261  00000-0  16004-3 0  9991,2 52864  53.2176  62.6356 0001509  87.9485 272.1680 15.08856553 95674,6917.83,95.437,540.739,538.651,0.0
